[{"OBJECT_NAME":"AEROCUBE 6B","OBJECT_ID":"2014-033AN","EPOCH":"2026-03-09T10:13:48.857088","MEAN_MOTION":14.98232474,"ECCENTRICITY":0.00374529,"INCLINATION":97.7129,"RA_OF_ASC_NODE":236.1645,"ARG_OF_PERICENTER":343.23,"MEAN_ANOMALY":16.7681,"EPHEMERIS_TYPE":0,"CLASSIFICATION_TYPE":"U","NORAD_CAT_ID":40046,"ELEMENT_SET_NO":999,"REV_AT_EPOCH":63181,"BSTAR":0.00066368498,"MEAN_MOTION_DOT":7.941e-5,"MEAN_MOTION_DDOT":0},{"OBJECT_NAME":"STARLINK-35267","OBJECT_ID":"2025-207A","EPOCH":"2026-03-09T17:32:37.637088","MEAN_MOTION":15.05648385,"ECCENTRICITY":0.00011316,"INCLINATION":97.6033,"RA_OF_ASC_NODE":138.6389,"ARG_OF_PERICENTER":124.6208,"MEAN_ANOMALY":235.5126,"EPHEMERIS_TYPE":0,"CLASSIFICATION_TYPE":"U","NORAD_CAT_ID":65592,"ELEMENT_SET_NO":999,"REV_AT_EPOCH":2825,"BSTAR":0.0003009984,"MEAN_MOTION_DOT":4.285e-5,"MEAN_MOTION_DDOT":0}]
